[
  {
    "COMMENT": "GENERATED VIA SPACETRACK.ORG API",
    "ORIGINATOR": "18 SPCS",
    "NORAD_CAT_ID": "26997",
    "OBJECT_NAME": "JASON",
    "OBJECT_TYPE": "PAYLOAD",
    "CLASSIFICATION_TYPE": "U",
    "INTLDES": "01055A",
    "EPOCH": "2023-04-16 20:59:01",
    "EPOCH_MICROSECONDS": "841568",
    "MEAN_MOTION": "12.84020208",
    "ECCENTRICITY": "0.0006976",
    "INCLINATION": "66.0414",
    "RA_OF_ASC_NODE": "331.2791",
    "ARG_OF_PERICENTER": "264.0833",
    "MEAN_ANOMALY": "107.4227",
    "EPHEMERIS_TYPE": "0",
    "ELEMENT_SET_NO": "999",
    "REV_AT_EPOCH": "28",
    "BSTAR": "0.00028522",
    "MEAN_MOTION_DOT": "0.00000007",
    "MEAN_MOTION_DDOT": "0",
    "FILE": "3888669",
    "TLE_LINE0": "0 JASON",
    "TLE_LINE1": "1 26997U 01055A   23106.87432687  .00000007  00000-0  28522-3 0  9990",
    "TLE_LINE2": "2 26997  66.0414 331.2791 0006976 264.0833 107.4227 12.84020208   286",
    "OBJECT_ID": "2001-055A",
    "OBJECT_NUMBER": "26997",
    "SEMIMAJOR_AXIS": "7703.485",
    "PERIOD": "112.148",
    "APOGEE": "1330.724",
    "PERIGEE": "1319.977",
    "DECAYED": "0"
  },
  {
    "COMMENT": "GENERATED VIA SPACETRACK.ORG API",
    "ORIGINATOR": "18 SPCS",
    "NORAD_CAT_ID": "26997",
    "OBJECT_NAME": "JASON",
    "OBJECT_TYPE": "PAYLOAD",
    "CLASSIFICATION_TYPE": "U",
    "INTLDES": "01055A",
    "EPOCH": "2023-04-17 01:27:20",
    "EPOCH_MICROSECONDS": "682720",
    "MEAN_MOTION": "12.84020246",
    "ECCENTRICITY": "0.0006971",
    "INCLINATION": "66.0414",
    "RA_OF_ASC_NODE": "330.8898",
    "ARG_OF_PERICENTER": "264.0759",
    "MEAN_ANOMALY": "248.647",
    "EPHEMERIS_TYPE": "0",
    "ELEMENT_SET_NO": "999",
    "REV_AT_EPOCH": "6",
    "BSTAR": "0.00029896",
    "MEAN_MOTION_DOT": "0.0000001",
    "MEAN_MOTION_DDOT": "0",
    "FILE": "3889215",
    "TLE_LINE0": "0 JASON",
    "TLE_LINE1": "1 26997U 01055A   23107.06065605  .00000010  00000-0  29896-3 0  9993",
    "TLE_LINE2": "2 26997  66.0414 330.8898 0006971 264.0759 248.6470 12.84020246    67",
    "OBJECT_ID": "2001-055A",
    "OBJECT_NUMBER": "26997",
    "SEMIMAJOR_AXIS": "7703.485",
    "PERIOD": "112.148",
    "APOGEE": "1330.720",
    "PERIGEE": "1319.980",
    "DECAYED": "0"
  },
  {
    "COMMENT": "GENERATED VIA SPACETRACK.ORG API",
    "ORIGINATOR": "18 SPCS",
    "NORAD_CAT_ID": "26997",
    "OBJECT_NAME": "JASON",
    "OBJECT_TYPE": "PAYLOAD",
    "CLASSIFICATION_TYPE": "U",
    "INTLDES": "01055A",
    "EPOCH": "2023-04-17 21:17:14",
    "EPOCH_MICROSECONDS": "797248",
    "MEAN_MOTION": "12.84020372",
    "ECCENTRICITY": "0.0006965",
    "INCLINATION": "66.0413",
    "RA_OF_ASC_NODE": "329.1637",
    "ARG_OF_PERICENTER": "264.1201",
    "MEAN_ANOMALY": "107.8725",
    "EPHEMERIS_TYPE": "0",
    "ELEMENT_SET_NO": "999",
    "REV_AT_EPOCH": "17",
    "BSTAR": "0.00031475",
    "MEAN_MOTION_DOT": "0.00000014",
    "MEAN_MOTION_DDOT": "0",
    "FILE": "3889391",
    "TLE_LINE0": "0 JASON",
    "TLE_LINE1": "1 26997U 01055A   23107.88697682  .00000014  00000-0  31475-3 0  9999",
    "TLE_LINE2": "2 26997  66.0413 329.1637 0006965 264.1201 107.8725 12.84020372   175",
    "OBJECT_ID": "2001-055A",
    "OBJECT_NUMBER": "26997",
    "SEMIMAJOR_AXIS": "7703.485",
    "PERIOD": "112.148",
    "APOGEE": "1330.715",
    "PERIGEE": "1319.984",
    "DECAYED": "0"
  },
  {
    "COMMENT": "GENERATED VIA SPACETRACK.ORG API",
    "ORIGINATOR": "18 SPCS",
    "NORAD_CAT_ID": "26997",
    "OBJECT_NAME": "JASON",
    "OBJECT_TYPE": "PAYLOAD",
    "CLASSIFICATION_TYPE": "U",
    "INTLDES": "01055A",
    "EPOCH": "2023-04-18 14:12:33",
    "EPOCH_MICROSECONDS": "977952",
    "MEAN_MOTION": "12.84020486",
    "ECCENTRICITY": "0.0006959",
    "INCLINATION": "66.0411",
    "RA_OF_ASC_NODE": "327.6909",
    "ARG_OF_PERICENTER": "264.1567",
    "MEAN_ANOMALY": "126.7434",
    "EPHEMERIS_TYPE": "0",
    "ELEMENT_SET_NO": "999",
    "REV_AT_EPOCH": "26",
    "BSTAR": "0.00032918",
    "MEAN_MOTION_DOT": "0.00000018",
    "MEAN_MOTION_DDOT": "0",
    "FILE": "3889684",
    "TLE_LINE0": "0 JASON",
    "TLE_LINE1": "1 26997U 01055A   23108.59205993  .00000018  00000-0  32918-3 0  9995",
    "TLE_LINE2": "2 26997  66.0411 327.6909 0006959 264.1567 126.7434 12.84020486   269",
    "OBJECT_ID": "2001-055A",
    "OBJECT_NUMBER": "26997",
    "SEMIMAJOR_AXIS": "7703.484",
    "PERIOD": "112.148",
    "APOGEE": "1330.710",
    "PERIGEE": "1319.989",
    "DECAYED": "0"
  },
  {
    "COMMENT": "GENERATED VIA SPACETRACK.ORG API",
    "ORIGINATOR": "18 SPCS",
    "NORAD_CAT_ID": "26997",
    "OBJECT_NAME": "JASON",
    "OBJECT_TYPE": "PAYLOAD",
    "CLASSIFICATION_TYPE": "U",
    "INTLDES": "01055A",
    "EPOCH": "2023-04-18 21:35:18",
    "EPOCH_MICROSECONDS": "225600",
    "MEAN_MOTION": "12.84020523",
    "ECCENTRICITY": "0.0006957",
    "INCLINATION": "66.041",
    "RA_OF_ASC_NODE": "327.0486",
    "ARG_OF_PERICENTER": "264.1309",
    "MEAN_ANOMALY": "107.8394",
    "EPHEMERIS_TYPE": "0",
    "ELEMENT_SET_NO": "999",
    "REV_AT_EPOCH": "30",
    "BSTAR": "0.00033223",
    "MEAN_MOTION_DOT": "0.00000018",
    "MEAN_MOTION_DDOT": "0",
    "FILE": "3889987",
    "TLE_LINE0": "0 JASON",
    "TLE_LINE1": "1 26997U 01055A   23108.89951650  .00000018  00000-0  33223-3 0  9996",
    "TLE_LINE2": "2 26997  66.0410 327.0486 0006957 264.1309 107.8394 12.84020523   306",
    "OBJECT_ID": "2001-055A",
    "OBJECT_NUMBER": "26997",
    "SEMIMAJOR_AXIS": "7703.484",
    "PERIOD": "112.148",
    "APOGEE": "1330.709",
    "PERIGEE": "1319.990",
    "DECAYED": "0"
  },
  {
    "COMMENT": "GENERATED VIA SPACETRACK.ORG API",
    "ORIGINATOR": "18 SPCS",
    "NORAD_CAT_ID": "26997",
    "OBJECT_NAME": "JASON",
    "OBJECT_TYPE": "PAYLOAD",
    "CLASSIFICATION_TYPE": "U",
    "INTLDES": "01055A",
    "EPOCH": "2023-04-19 14:30:18",
    "EPOCH_MICROSECONDS": "110592",
    "MEAN_MOTION": "12.84020542",
    "ECCENTRICITY": "0.000695",
    "INCLINATION": "66.041",
    "RA_OF_ASC_NODE": "325.5762",
    "ARG_OF_PERICENTER": "264.1531",
    "MEAN_ANOMALY": "125.6922",
    "EPHEMERIS_TYPE": "0",
    "ELEMENT_SET_NO": "999",
    "REV_AT_EPOCH": "39",
    "BSTAR": "0.00029318",
    "MEAN_MOTION_DOT": "0.00000009",
    "MEAN_MOTION_DDOT": "0",
    "FILE": "3890383",
    "TLE_LINE0": "0 JASON",
    "TLE_LINE1": "1 26997U 01055A   23109.60437628  .00000009  00000-0  29318-3 0  9990",
    "TLE_LINE2": "2 26997  66.0410 325.5762 0006950 264.1531 125.6922 12.84020542   391",
    "OBJECT_ID": "2001-055A",
    "OBJECT_NUMBER": "26997",
    "SEMIMAJOR_AXIS": "7703.484",
    "PERIOD": "112.148",
    "APOGEE": "1330.703",
    "PERIGEE": "1319.995",
    "DECAYED": "0"
  },
  {
    "COMMENT": "GENERATED VIA SPACETRACK.ORG API",
    "ORIGINATOR": "18 SPCS",
    "NORAD_CAT_ID": "26997",
    "OBJECT_NAME": "JASON",
    "OBJECT_TYPE": "PAYLOAD",
    "CLASSIFICATION_TYPE": "U",
    "INTLDES": "01055A",
    "EPOCH": "2023-04-19 21:54:58",
    "EPOCH_MICROSECONDS": "334688",
    "MEAN_MOTION": "12.84020583",
    "ECCENTRICITY": "0.0006946",
    "INCLINATION": "66.0409",
    "RA_OF_ASC_NODE": "324.9312",
    "ARG_OF_PERICENTER": "264.1412",
    "MEAN_ANOMALY": "112.9787",
    "EPHEMERIS_TYPE": "0",
    "ELEMENT_SET_NO": "999",
    "REV_AT_EPOCH": "43",
    "BSTAR": "0.00029578",
    "MEAN_MOTION_DOT": "0.0000001",
    "MEAN_MOTION_DDOT": "0",
    "FILE": "3890520",
    "TLE_LINE0": "0 JASON",
    "TLE_LINE1": "1 26997U 01055A   23109.91317517  .00000010  00000-0  29578-3 0  9998",
    "TLE_LINE2": "2 26997  66.0409 324.9312 0006946 264.1412 112.9787 12.84020583   434",
    "OBJECT_ID": "2001-055A",
    "OBJECT_NUMBER": "26997",
    "SEMIMAJOR_AXIS": "7703.484",
    "PERIOD": "112.148",
    "APOGEE": "1330.700",
    "PERIGEE": "1319.998",
    "DECAYED": "0"
  },
  {
    "COMMENT": "GENERATED VIA SPACETRACK.ORG API",
    "ORIGINATOR": "18 SPCS",
    "NORAD_CAT_ID": "26997",
    "OBJECT_NAME": "JASON",
    "OBJECT_TYPE": "PAYLOAD",
    "CLASSIFICATION_TYPE": "U",
    "INTLDES": "01055A",
    "EPOCH": "2023-04-20 02:28:52",
    "EPOCH_MICROSECONDS": "607424",
    "MEAN_MOTION": "12.8402073",
    "ECCENTRICITY": "0.0006915",
    "INCLINATION": "66.0409",
    "RA_OF_ASC_NODE": "324.534",
    "ARG_OF_PERICENTER": "263.9023",
    "MEAN_ANOMALY": "272.3799",
    "EPHEMERIS_TYPE": "0",
    "ELEMENT_SET_NO": "999",
    "REV_AT_EPOCH": "45",
    "BSTAR": "0.00033855",
    "MEAN_MOTION_DOT": "0.0000002",
    "MEAN_MOTION_DDOT": "0",
    "FILE": "3890827",
    "TLE_LINE0": "0 JASON",
    "TLE_LINE1": "1 26997U 01055A   23110.10338666  .00000020  00000-0  33855-3 0  9993",
    "TLE_LINE2": "2 26997  66.0409 324.5340 0006915 263.9023 272.3799 12.84020730   452",
    "OBJECT_ID": "2001-055A",
    "OBJECT_NUMBER": "26997",
    "SEMIMAJOR_AXIS": "7703.483",
    "PERIOD": "112.148",
    "APOGEE": "1330.675",
    "PERIGEE": "1320.021",
    "DECAYED": "0"
  },
  {
    "COMMENT": "GENERATED VIA SPACETRACK.ORG API",
    "ORIGINATOR": "18 SPCS",
    "NORAD_CAT_ID": "26997",
    "OBJECT_NAME": "JASON",
    "OBJECT_TYPE": "PAYLOAD",
    "CLASSIFICATION_TYPE": "U",
    "INTLDES": "01055A",
    "EPOCH": "2023-04-20 20:19:05",
    "EPOCH_MICROSECONDS": "860704",
    "MEAN_MOTION": "12.84020761",
    "ECCENTRICITY": "0.0006917",
    "INCLINATION": "66.0407",
    "RA_OF_ASC_NODE": "322.9814",
    "ARG_OF_PERICENTER": "264.0233",
    "MEAN_ANOMALY": "107.3854",
    "EPHEMERIS_TYPE": "0",
    "ELEMENT_SET_NO": "999",
    "REV_AT_EPOCH": "55",
    "BSTAR": "0.00028163",
    "MEAN_MOTION_DOT": "0.00000006",
    "MEAN_MOTION_DDOT": "0",
    "FILE": "3891109",
    "TLE_LINE0": "0 JASON",
    "TLE_LINE1": "1 26997U 01055A   23110.84659561  .00000006  00000-0  28163-3 0  9994",
    "TLE_LINE2": "2 26997  66.0407 322.9814 0006917 264.0233 107.3854 12.84020761   559",
    "OBJECT_ID": "2001-055A",
    "OBJECT_NUMBER": "26997",
    "SEMIMAJOR_AXIS": "7703.483",
    "PERIOD": "112.148",
    "APOGEE": "1330.677",
    "PERIGEE": "1320.020",
    "DECAYED": "0"
  }
]